[Satellite]
VERSION=1.1
NAME=GEO-KOMPSAT-2B
NICKNAME=GEO-KOMPSAT-2B
TLE1=1 45246U 20013B   20078.71717160 -.00000366  00000-0  00000+0 0  9999
TLE2=2 45246   0.0467 309.9256 0001055   5.0334 248.2041  1.00271732   385
STATUS=0
